CUTE-1 (CO-55)          
1 27844U 03031E   18319.92892582  .00000054  00000-0  44000-4 0  9990
2 27844  98.6870 326.3478 0008837 295.3117  64.7145 14.22144168797768
CUBESAT XI-IV (CO-57)   
1 27848U 03031J   18319.50842537  .00000040  00000-0  38268-4 0  9997
2 27848  98.6953 326.3793 0008847 308.7421  51.2965 14.21744307797561
CUBESAT XI 5            
1 28895U 05043F   18319.36684626  .00000166  00000-0  40774-4 0  9996
2 28895  97.9296 104.8967 0015813 314.8769  45.1149 14.63601887695982
CUTE-1.7+APD II (CO-65) 
1 32785U 08021C   18319.53581509  .00000225  00000-0  29947-4 0  9998
2 32785  97.5469 324.4879 0011613 254.8864 105.1069 14.88205809571610
AAUSAT-II               
1 32788U 08021F   18319.94593590  .00000848  00000-0  83475-4 0  9996
2 32788  97.5115 340.0565 0011510 192.7434 167.3498 14.94512881572846
DELFI-C3 (DO-64)        
1 32789U 08021G   18319.44243081  .00001277  00000-0  90516-4 0  9990
2 32789  97.4944  10.3059 0013477 137.1997 223.0282 15.06449409574451
SEEDS II (CO-66)        
1 32791U 08021J   18319.51025563  .00000435  00000-0  49657-4 0  9999
2 32791  97.5320 330.1344 0012210 230.6585 129.3553 14.90671542572059
SWISSCUBE               
1 35932U 09051B   18319.94773747  .00000146  00000-0  44106-4 0  9997
2 35932  98.5640 114.9444 0008732 103.3319 256.8852 14.56215987485521
BEESAT                  
1 35933U 09051C   18319.41483095  .00000123  00000-0  38766-4 0  9994
2 35933  98.5677 116.0388 0006881 115.5280 244.6629 14.56313168485478
ITUPSAT 1               
1 35935U 09051E   18319.41787914  .00000102  00000-0  34577-4 0  9996
2 35935  98.5787 116.2909 0009209 112.9125 247.3044 14.55483319485329
TISAT 1                 
1 36799U 10035E   18319.52991228  .00000459  00000-0  52590-4 0  9996
2 36799  98.1276  99.9726 0013557  74.1422 286.1288 14.90933433452704
M-CUBED & EXP-1 PRIME   
1 37855U 11061F   18319.95292488  .00000742  00000-0  45654-4 0  9997
2 37855 101.7220 100.1696 0175177 352.9472   6.9278 15.04872418384474
STRAND-1                
1 39090U 13009E   18319.55133048  .00000021  00000-0  22629-4 0  9993
2 39090  98.5052 163.8606 0008613 201.9524 158.1294 14.35058310299531
AIST-2 (RS-43)          
1 39133U 13015D   18319.95024448  .00000078  00000-0  17818-4 0  9991
2 39133  64.8750  91.9705 0006505 218.7869 265.4723 15.04636512306044
SOMP                    
1 39134U 13015E   18319.45748768  .00001183  00000-0  64676-4 0  9997
2 39134  64.8639 357.4320 0008500 325.9080  34.1500 15.19578501307502
BEESAT-3                
1 39135U 13015F   18319.53374822  .00000927  00000-0  56516-4 0  9992
2 39135  64.8707  12.5361 0009466 256.4027 103.6045 15.17013997307219
BEESAT-2                
1 39136U 13015G   18319.55745697  .00000986  00000-0  60356-4 0  9999
2 39136  64.8705  15.6616 0011070 246.6034 113.3928 15.16462610307541
NEE-01 PEGASUS          
1 39151U 13018B   18319.95455433  .00000172  00000-0  29772-4 0  9993
2 39151  97.9755  52.9576 0017319 172.9510 187.1948 14.79964714299968
ESTCUBE 1               
1 39161U 13021C   18319.80736690  .00000203  00000-0  40112-4 0  9995
2 39161  98.0023  43.3205 0008282 298.0372  62.0000 14.72126485296759
POPACS 1                
1 39268U 13055D   18319.10171248  .00004191  00000-0  11585-3 0  9996
2 39268  81.0029 187.8442 0633258 141.0123 223.8544 14.35482848264628
POPACS 2                
1 39269U 13055E   18319.13963458  .00002289  00000-0  66465-4 0  9996
2 39269  81.0168 212.8884 0687753 205.9300 150.5875 14.22974967263387
POPACS 3                
1 39270U 13055F   18318.16363351  .00001247  00000-0  39457-4 0  9990
2 39270  81.0194 227.9451 0715733 250.0024 102.2747 14.15243435263562
ZACUBE-1 (TSHEPISOSAT)  
1 39417U 13066B   18319.59201973  .00000250  00000-0  37860-4 0  9993
2 39417  97.5762 340.0575 0059479  20.5605 339.7982 14.81010485269200
WNISAT-1                
1 39423U 13066H   18319.84836388  .00000076  00000-0  25301-4 0  9995
2 39423  97.7482 272.3763 0174219 263.8297  94.3047 14.52995009264251
GOMX 1                  
1 39430U 13066Q   18319.85588469  .00000139  00000-0  34358-4 0  9990
2 39430  97.7154 285.9564 0150372 211.4821 147.7352 14.59154221265275
CUBEBUG-2 (LO-74)       
1 39440U 13066AA  18319.55009289  .00000256  00000-0  42425-4 0  9990
2 39440  97.5997 325.7802 0081715  64.4080 296.5547 14.75750055267045
NEE-02 KRYSAOR          
1 39441U 13066AB  18319.93236166  .00000168  00000-0  30767-4 0  9997
2 39441  97.6013 324.1483 0083260  68.9034 292.1052 14.74832719268141
FUNCUBE-1 (AO-73)       
1 39444U 13066AE  18319.57473450  .00000308  00000-0  44312-4 0  9996
2 39444  97.5763 341.7538 0058467  15.4361 344.8619 14.81809518267481
UWE-3                   
1 39446U 13066AG  18319.58423867  .00000263  00000-0  41500-4 0  9992
2 39446  97.5864 332.4848 0071110  42.9090 317.7639 14.78284787266896
BRITE-TORONTO           
1 40020U 14033L   18319.55432664  .00000035  00000-0  14271-4 0  9991
2 40020  97.7653 170.0350 0088668 122.0755 238.9098 14.66531288235776
DUCHIFAT-1              
1 40021U 14033M   18319.32146329  .00000561  00000-0  63313-4 0  9992
2 40021  97.9162 238.3028 0014057  44.4009 315.8333 14.90443343239462
NANOSATC-BR1            
1 40024U 14033Q   18319.77405141  .00000408  00000-0  48500-4 0  9995
2 40024  97.9082 236.6849 0013378  45.8944 314.3371 14.89686989239443
QB50P1                  
1 40025U 14033R   18319.77555653  .00000336  00000-0  41819-4 0  9996
2 40025  97.9027 234.8271 0013652  50.4600 309.7820 14.88813261239348
QB50P2                  
1 40032U 14033Y   18319.77778994  .00000331  00000-0  41752-4 0  9990
2 40032  97.8970 233.3224 0012967  46.8429 313.3869 14.88353851239270
PERSEUS-M2              
1 40037U 14033AD  18319.28026580  .00000119  00000-0  19754-4 0  9999
2 40037  97.8934 229.8679 0015653  57.5405 302.7322 14.86400947238471
PERSEUS-M1              
1 40039U 14033AF  18319.27637802  .00000125  00000-0  20605-4 0  9999
2 40039  97.8927 229.1274 0015452  54.7636 305.5023 14.86022261238402
POLYITAN-1              
1 40042U 14033AJ  18319.39345223  .00000376  00000-0  46430-4 0  9991
2 40042  97.9103 234.6444 0015736  40.9071 319.3323 14.88504209238694
TIGRISAT                
1 40043U 14033AK  18319.60249446  .00000164  00000-0  31491-4 0  9992
2 40043  97.7845 191.1977 0061398  71.1423 289.6431 14.74195386236612
AEROCUBE 6A             
1 40045U 14033AM  18319.90578778  .00000406  00000-0  65654-4 0  9997
2 40045  97.8038 194.3591 0059263  63.7510 296.9774 14.75251160236893
AEROCUBE 6B             
1 40046U 14033AN  18319.56904577  .00000364  00000-0  59798-4 0  9995
2 40046  97.7993 193.8106 0058514  64.3508 296.3730 14.75235521236609
UKUBE-1                 
1 40074U 14037F   18319.87519269  .00000332  00000-0  47126-4 0  9991
2 40074  98.4075 105.0094 0004218 175.9425 184.1836 14.83913089235790
BRITE-PL 2              
1 40119U 14049B   18319.95315501  .00000135  00000-0  22535-4 0  9994
2 40119  97.9144  47.4181 0017072 198.0437 162.0174 14.84339220229814
FIREBIRD 4              
1 40378U 15003C   18319.76408720  .00002126  00000-0  88453-4 0  9990
2 40378  99.0862 251.6347 0130951  86.1444 275.4745 15.17826502209318
GRIFEX                  
1 40379U 15003D   18319.76577975  .00001436  00000-0  65612-4 0  9995
2 40379  99.0859 246.9870 0138238 100.9979 260.6833 15.14776273209047
EXOCUBE                 
1 40380U 15003E   18319.73879382  .00001130  00000-0  54849-4 0  9992
2 40380  99.0890 244.3995 0142848 109.6908 251.9794 15.12893521208866
TIANWANG 1C (TW-1C)     
1 40926U 15051B   18319.83073622  .00008841  00000-0  15046-3 0  9996
2 40926  97.1689   1.5637 0011358  85.6425   1.6435 15.51568466176801
TIANWANG 1A (TW-1A)     
1 40928U 15051D   18319.87134259  .00003105  00000-0  80972-4 0  9995
2 40928  97.1713 350.8084 0012929 125.9317 231.8165 15.39506968176105
EXACTVIEW 9             
1 40936U 15052G   18319.47100057  .00000773  00000-0  19052-4 0  9999
2 40936   6.0018 155.4465 0010716 334.1060  25.8532 14.76433508169362
ATHENOXAT 1             
1 41168U 15077C   18319.40121434  .00002126  00000-0  78826-4 0  9997
2 41168  14.9891 353.2672 0011703 343.7210 125.7403 15.13139427161314
GALASSIA                
1 41170U 15077E   18319.62068753  .00001937  00000-0  67610-4 0  9996
2 41170  14.9899 345.6127 0013061   6.6282 353.4211 15.13491068161407
VELOX 2                 
1 41171U 15077F   18319.70021799  .00001583  00000-0  53411-4 0  9996
2 41171  14.9924  11.2032 0008969 298.7600  61.1820 15.10892884161189
HORYU-IV                
1 41340U 16012D   18319.53674684  .00000537  00000-0  34198-4 0  9991
2 41340  31.0056  63.7817 0013867 154.7085 205.4231 15.01106437150658
E-ST@R-II               
1 41459U 16025D   18319.73978533  .00001490  00000-0  81313-4 0  9998
2 41459  98.1213  30.3750 0168698   0.7207 359.4214 15.04840667140218
AAUSAT 4                
1 41460U 16025E   18319.76447045  .00000895  00000-0  49927-4 0  9995
2 41460  98.1164  31.1660 0159989 355.4585   4.5171 15.06449721140304
DIWATA-1                
1 41463U 98067HT  18319.92643691  .00013716  00000-0  98307-4 0  9999
2 41463  51.6387 275.6592 0001788  52.0048 359.6047 15.74030434145879
BEESAT-4                
1 41619U 16040W   18319.90747863  .00001390  00000-0  62840-4 0  9995
2 41619  97.3978  20.8422 0012930  62.6084 297.6466 15.22545714121173
CANX-7                  
1 41788U 16059F   18319.87038760  .00007199  00000-0  11694-2 0  9999
2 41788  98.2221  27.5052 0025044 328.5465  31.4234 14.71223869114391
ALSAT 1N                
1 41789U 16059G   18319.80628353  .00000094  00000-0  26980-4 0  9999
2 41789  98.1014  20.3062 0027782 333.1187  26.8565 14.64194694114207
RAVAN                   
1 41849U 16067B   18319.25435359  .00000625  00000-0  58187-4 0  9990
2 41849  97.9226  50.2450 0008348  27.5169 332.6493 14.97981015109748
